{
    "links": {
        "self": "http://www.neowsapp.com/rest/v1/neo/3604181?api_key=iIulBulltgU6a56xZRHN4H3l9WmuAYTsLGpBGhQ2"
    },
    "id": "3604181",
    "neo_reference_id": "3604181",
    "name": "(2012 JV11)",
    "designation": "2012 JV11",
    "nasa_jpl_url": "http://ssd.jpl.nasa.gov/sbdb.cgi?sstr=3604181",
    "absolute_magnitude_h": 24.0,
    "estimated_diameter": {
        "kilometers": {
            "estimated_diameter_min": 0.0421264611,
            "estimated_diameter_max": 0.0941976306
        },
        "meters": {
            "estimated_diameter_min": 42.1264610556,
            "estimated_diameter_max": 94.1976305719
        },
        "miles": {
            "estimated_diameter_min": 0.0261761612,
            "estimated_diameter_max": 0.0585316759
        },
        "feet": {
            "estimated_diameter_min": 138.2101784897,
            "estimated_diameter_max": 309.0473542854
        }
    },
    "is_potentially_hazardous_asteroid": false,
    "close_approach_data": [
        {
            "close_approach_date": "1967-04-30",
            "close_approach_date_full": "1967-Apr-30 23:33",
            "epoch_date_close_approach": -84328020000,
            "relative_velocity": {
                "kilometers_per_second": "31.2476081433",
                "kilometers_per_hour": "112491.3893160215",
                "miles_per_hour": "69897.7746558357"
            },
            "miss_distance": {
                "astronomical": "0.3819712275",
                "lunar": "148.5868074975",
                "kilometers": "57142082.035285425",
                "miles": "35506443.321071865"
            },
            "orbiting_body": "Earth"
        },
        {
            "close_approach_date": "2012-05-22",
            "close_approach_date_full": "2012-May-22 00:51",
            "epoch_date_close_approach": 1337647860000,
            "relative_velocity": {
                "kilometers_per_second": "19.4857388906",
                "kilometers_per_hour": "70148.6600063213",
                "miles_per_hour": "43587.6493244834"
            },
            "miss_distance": {
                "astronomical": "0.0171270163",
                "lunar": "6.6624093407",
                "kilometers": "2562165.157935281",
                "miles": "1592055.6045416378"
            },
            "orbiting_body": "Earth"
        },
        {
            "close_approach_date": "2012-06-16",
            "close_approach_date_full": "2012-Jun-16 21:19",
            "epoch_date_close_approach": 1339881540000,
            "relative_velocity": {
                "kilometers_per_second": "18.3975875905",
                "kilometers_per_hour": "66231.31532593",
                "miles_per_hour": "41153.5636812702"
            },
            "miss_distance": {
                "astronomical": "0.0445019517",
                "lunar": "17.3112592113",
                "kilometers": "6657397.185162879",
                "miles": "4136714.7888465702"
            },
            "orbiting_body": "Venus"
        }
    ],
    "orbital_data": {
        "orbit_id": "9",
        "orbit_determination_date": "2017-04-06 08:49:49",
        "first_observation_date": "2012-05-15",
        "last_observation_date": "2012-05-19",
        "data_arc_in_days": 4,
        "observations_used": 57,
        "orbit_uncertainty": "8",
        "minimum_orbit_intersection": ".00928003",
        "jupiter_tisserand_invariant": "3.517",
        "epoch_osculation": "2456063.5",
        "eccentricity": ".6803952976399843",
        "semi_major_axis": "1.994162224578274",
        "inclination": ".6712888631496288",
        "ascending_node_longitude": "355.7536475471837",
        "orbital_period": "1028.582555691314",
        "perihelion_distance": ".6373436242439261",
        "perihelion_argument": "329.71642157",
        "aphelion_distance": "3.350980824912622",
        "perihelion_time": "2456117.294864280532",
        "mean_anomaly": "341.1720011837305",
        "mean_motion": ".3499962137293323",
        "equinox": "J2000",
        "orbit_class": {
            "orbit_class_type": "APO",
            "orbit_class_description": "Near-Earth asteroid orbits which cross the Earth’s orbit similar to that of 1862 Apollo",
            "orbit_class_range": "a (semi-major axis) > 1.0 AU; q (perihelion) < 1.017 AU"
        }
    },
    "is_sentry_object": false
}